YAOGAN-36 04C           
1 54750U 22171E   26068.78871400  .00016196  00000+0  54592-3 0  9991
2 54750  34.9797  96.6578 0006685 275.3761  84.6192 15.29852307180246
STARLINK-34542          
1 65890U 25224J   26068.05374502  .00016208  00000+0  55824-3 0  9994
2 65890  53.1620  14.5417 0001104  84.9948 275.1179 15.30194591 24777
